{"type":"FeatureCollection","features":[{"type":"Feature","properties":{"pane":"overlayPane","attribution":null,"bubblingMouseEvents":true,"fill":true,"smoothFactor":1,"noClip":false,"stroke":true,"color":"#f1c40f","weight":"3","opacity":"0.7","lineCap":"round","lineJoin":"round","dashArray":null,"dashOffset":null,"fillColor":"#f1c40f","fillOpacity":"0.57","fillRule":"evenodd","interactive":true,"clickable":true,"popupContent":"aug-territory","maintainColor":false},"geometry":{"type":"Polygon","coordinates":[[[-4597.825315,-733.634146],[-4613.494472,-832.863533],[-4629.823382,-870.798118],[-4719.055104,-924.863299],[-4765.40282,-1025.411349],[-4730.930676,-1066.619566],[-4578.527512,-1059.037254],[-4540.261782,-1027.554176],[-4516.675579,-903.929525],[-4538.777336,-869.479455],[-4563.188232,-743.052645],[-4597.825315,-733.634146]]]},"name":"aug-territory"},{"type":"Feature","properties":{"pane":"overlayPane","attribution":null,"bubblingMouseEvents":true,"fill":true,"smoothFactor":1,"noClip":false,"stroke":true,"color":"#9b59b6","weight":3,"opacity":1,"lineCap":"round","lineJoin":"round","dashArray":null,"dashOffset":null,"fillColor":"#8e44ad","fillOpacity":"0.25","fillRule":"evenodd","interactive":true,"maintainColor":false,"popupContent":"outlaw-territory"},"geometry":{"type":"Polygon","coordinates":[[[-5161,-552.93696],[-5249,-591.79444],[-5271.125,-623.405187],[-5269.5,-664.011878],[-5249.25,-679.75478],[-5218.25,-684.377695],[-5192.75,-694.623076],[-5156.25,-696.497231],[-5097,-721.485964],[-5063.625,-754.221204],[-5026.375,-770.713768],[-4950.125,-743.101218],[-4914,-711.740358],[-4909.375,-654.766047],[-4914.125,-622.905413],[-4918.375,-613.534638],[-4973.75,-576.8012],[-4991,-547.439439],[-5010.875,-543.941017],[-5062.625,-567.9302],[-5079.625,-570.803904],[-5139.25,-545.940115],[-5161,-552.93696]]]},"name":"outlaw-territory"}]}